[{"OBJECT_NAME":"STARLINK-30602","OBJECT_ID":"2023-160G","EPOCH":"2026-03-09T01:02:16.046592","MEAN_MOTION":15.22911342,"ECCENTRICITY":8.15e-5,"INCLINATION":43.0026,"RA_OF_ASC_NODE":81.8046,"ARG_OF_PERICENTER":268.3637,"MEAN_ANOMALY":91.712,"EPHEMERIS_TYPE":0,"CLASSIFICATION_TYPE":"U","NORAD_CAT_ID":58081,"ELEMENT_SET_NO":999,"REV_AT_EPOCH":13284,"BSTAR":0.00020841055,"MEAN_MOTION_DOT":4.737e-5,"MEAN_MOTION_DDOT":0},{"OBJECT_NAME":"CZ-2C R\/B","OBJECT_ID":"2026-009B","EPOCH":"2026-03-09T17:37:38.663328","MEAN_MOTION":15.03346126,"ECCENTRICITY":0.00989033,"INCLINATION":97.1689,"RA_OF_ASC_NODE":139.2821,"ARG_OF_PERICENTER":40.6367,"MEAN_ANOMALY":320.2186,"EPHEMERIS_TYPE":0,"CLASSIFICATION_TYPE":"U","NORAD_CAT_ID":67475,"ELEMENT_SET_NO":999,"REV_AT_EPOCH":808,"BSTAR":0.00028478769,"MEAN_MOTION_DOT":4.245e-5,"MEAN_MOTION_DDOT":0}]
